{"type": "FeatureCollection", "features": [ {"type": "Feature", "properties": {"norad_id": 33492, "name": "GOSAT (IBUKI)", "group": "resource", "lat": -27.51782902354834, "lon": -78.98825926893103, "alt_km": 674.9221208724275, "timestamp": "2025-12-22T18:58:53.077412+00:00", "meta": {"OBJECT_NAME": "GOSAT (IBUKI)", "OBJECT_ID": "2009-002A", "EPOCH": "2025-12-22T06:35:00.130848", "MEAN_MOTION": 14.67542964, "ECCENTRICITY": 9.84e-05, "INCLINATION": 98.0771, "RA_OF_ASC_NODE": 104.7451, "ARG_OF_PERICENTER": 101.5857, "MEAN_ANOMALY": 258.5458, "EPHEMERIS_TYPE": 0, "CLASSIFICATION_TYPE": "U", "NORAD_CAT_ID": 33492, "ELEMENT_SET_NO": 999, "REV_AT_EPOCH": 90551, "BSTAR": 0.00014887955, "MEAN_MOTION_DOT": 7.96e-06, "MEAN_MOTION_DDOT": 0}, "tle": {"line1": "1 33492U 09002A   25356.27430707  .00000796  00000+0  14888-3 0  9996", "line2": "2 33492  98.0771 104.7451 0000984 101.5857 258.5458 14.67542964905510"}}, "geometry": {"type": "Point", "coordinates": [-78.98825926893103, -27.51782902354834]}}, {"type": "Feature", "properties": {"norad_id": 35681, "name": "DEIMOS-1", "group": "resource", "lat": -13.221298497035729, "lon": -24.89890923493479, "alt_km": 650.9967003270403, "timestamp": "2025-12-22T18:58:53.077423+00:00", "meta": {"OBJECT_NAME": "DEIMOS-1", "OBJECT_ID": "2009-041A", "EPOCH": "2025-12-22T06:42:40.529664", "MEAN_MOTION": 14.74965072, "ECCENTRICITY": 0.00025744, "INCLINATION": 97.7148, "RA_OF_ASC_NODE": 156.4389, "ARG_OF_PERICENTER": 64.6084, "MEAN_ANOMALY": 295.5392, "EPHEMERIS_TYPE": 0, "CLASSIFICATION_TYPE": "U", "NORAD_CAT_ID": 35681, "ELEMENT_SET_NO": 999, "REV_AT_EPOCH": 88080, "BSTAR": 7.6106164e-05, "MEAN_MOTION_DOT": 4.64e-06, "MEAN_MOTION_DDOT": 0}, "tle": {"line1": "1 35681U 09041A   25356.27963576  .00000464  00000+0  76106-4 0  9990", "line2": "2 35681  97.7148 156.4389 0002574  64.6084 295.5392 14.74965072880807"}}, "geometry": {"type": "Point", "coordinates": [-24.89890923493479, -13.221298497035729]}}, {"type": "Feature", "properties": {"norad_id": 35682, "name": "DUBAISAT-1", "group": "resource", "lat": 62.9370563980331, "lon": -36.74138452109417, "alt_km": 646.381871578038, "timestamp": "2025-12-22T18:58:53.077434+00:00", "meta": {"OBJECT_NAME": "DUBAISAT-1", "OBJECT_ID": "2009-041B", "EPOCH": "2025-12-21T22:54:53.737632", "MEAN_MOTION": 14.74628327, "ECCENTRICITY": 0.0009222, "INCLINATION": 97.9798, "RA_OF_ASC_NODE": 126.4992, "ARG_OF_PERICENTER": 281.3915, "MEAN_ANOMALY": 78.6258, "EPHEMERIS_TYPE": 0, "CLASSIFICATION_TYPE": "U", "NORAD_CAT_ID": 35682, "ELEMENT_SET_NO": 999, "REV_AT_EPOCH": 87897, "BSTAR": 0.0001851, "MEAN_MOTION_DOT": 1.185e-05, "MEAN_MOTION_DDOT": 0}, "tle": {"line1": "1 35682U 09041B   25355.95478863  .00001185  00000+0  18510-3 0  9990", "line2": "2 35682  97.9798 126.4992 0009222 281.3915  78.6258 14.74628327878971"}}, "geometry": {"type": "Point", "coordinates": [-36.74138452109417, 62.9370563980331]}}, {"type": "Feature", "properties": {"norad_id": 35931, "name": "OCEANSAT-2", "group": "resource", "lat": 73.84502976006036, "lon": -153.68737695034645, "alt_km": 887.0648138761971, "timestamp": "2025-12-22T18:58:53.077445+00:00", "meta": {"OBJECT_NAME": "OCEANSAT-2", "OBJECT_ID": "2009-051A", "EPOCH": "2025-12-22T06:28:40.338912", "MEAN_MOTION": 13.99622969, "ECCENTRICITY": 0.00159753, "INCLINATION": 98.2217, "RA_OF_ASC_NODE": 355.9035, "ARG_OF_PERICENTER": 20.0595, "MEAN_ANOMALY": 340.1196, "EPHEMERIS_TYPE": 0, "CLASSIFICATION_TYPE": "U", "NORAD_CAT_ID": 35931, "ELEMENT_SET_NO": 999, "REV_AT_EPOCH": 85458, "BSTAR": -3.2598595e-05, "MEAN_MOTION_DOT": -8.5e-07, "MEAN_MOTION_DDOT": 0}, "tle": {"line1": "1 35931U 09051A   25356.26991133 -.00000085  00000+0 -32599-4 0  9997", "line2": "2 35931  98.2217 355.9035 0015975  20.0595 340.1196 13.99622969854580"}}, "geometry": {"type": "Point", "coordinates": [-153.68737695034645, 73.84502976006036]}}, {"type": "Feature", "properties": {"norad_id": 35946, "name": "WORLDVIEW-2 (WV-2)", "group": "resource", "lat": 17.54606017232687, "lon": -109.55965028352094, "alt_km": 767.9658315462648, "timestamp": "2025-12-22T18:58:53.077456+00:00", "meta": {"OBJECT_NAME": "WORLDVIEW-2 (WV-2)", "OBJECT_ID": "2009-055A", "EPOCH": "2025-12-22T04:52:04.753056", "MEAN_MOTION": 14.37728093, "ECCENTRICITY": 0.00048476, "INCLINATION": 98.4776, "RA_OF_ASC_NODE": 67.1575, "ARG_OF_PERICENTER": 47.4569, "MEAN_ANOMALY": 312.7026, "EPHEMERIS_TYPE": 0, "CLASSIFICATION_TYPE": "U", "NORAD_CAT_ID": 35946, "ELEMENT_SET_NO": 999, "REV_AT_EPOCH": 85021, "BSTAR": 7.3678839e-05, "MEAN_MOTION_DOT": 1.78e-06, "MEAN_MOTION_DDOT": 0}, "tle": {"line1": "1 35946U 09055A   25356.20283279  .00000178  00000+0  73679-4 0  9991", "line2": "2 35946  98.4776  67.1575 0004847  47.4569 312.7026 14.37728093850210"}}, "geometry": {"type": "Point", "coordinates": [-109.55965028352094, 17.54606017232687]}}, {"type": "Feature", "properties": {"norad_id": 36036, "name": "SMOS", "group": "resource", "lat": -81.5416658792125, "lon": -91.74020556539614, "alt_km": 767.4139298066266, "timestamp": "2025-12-22T18:58:53.077466+00:00", "meta": {"OBJECT_NAME": "SMOS", "OBJECT_ID": "2009-059A", "EPOCH": "2025-12-22T06:03:11.797632", "MEAN_MOTION": 14.39749454, "ECCENTRICITY": 0.00010628, "INCLINATION": 98.438, "RA_OF_ASC_NODE": 181.1598, "ARG_OF_PERICENTER": 83.3121, "MEAN_ANOMALY": 276.8189, "EPHEMERIS_TYPE": 0, "CLASSIFICATION_TYPE": "U", "NORAD_CAT_ID": 36036, "ELEMENT_SET_NO": 999, "REV_AT_EPOCH": 84799, "BSTAR": 0.00013089616, "MEAN_MOTION_DOT": 3.67e-06, "MEAN_MOTION_DDOT": 0}, "tle": {"line1": "1 36036U 09059A   25356.25221988  .00000367  00000+0  13090-3 0  9990", "line2": "2 36036  98.4380 181.1598 0001062  83.3121 276.8189 14.39749454847990"}}, "geometry": {"type": "Point", "coordinates": [-91.74020556539614, -81.5416658792125]}}, {"type": "Feature", "properties": {"norad_id": 36110, "name": "YAOGAN-7", "group": "resource", "lat": 27.763308459946302, "lon": -125.75003439573176, "alt_km": 648.0453763039641, "timestamp": "2025-12-22T18:58:53.077477+00:00", "meta": {"OBJECT_NAME": "YAOGAN-7", "OBJECT_ID": "2009-069A", "EPOCH": "2025-12-22T04:13:43.452768", "MEAN_MOTION": 14.77745547, "ECCENTRICITY": 0.00233887, "INCLINATION": 98.0296, "RA_OF_ASC_NODE": 237.8993, "ARG_OF_PERICENTER": 249.0784, "MEAN_ANOMALY": 110.7922, "EPHEMERIS_TYPE": 0, "CLASSIFICATION_TYPE": "U", "NORAD_CAT_ID": 36110, "ELEMENT_SET_NO": 999, "REV_AT_EPOCH": 86348, "BSTAR": 8.7982108e-05, "MEAN_MOTION_DOT": 5.8e-06, "MEAN_MOTION_DDOT": 0}, "tle": {"line1": "1 36110U 09069A   25356.17619737  .00000580  00000+0  87982-4 0  9997", "line2": "2 36110  98.0296 237.8993 0023388 249.0784 110.7922 14.77745547863488"}}, "geometry": {"type": "Point", "coordinates": [-125.75003439573176, 27.763308459946302]}}, {"type": "Feature", "properties": {"norad_id": 36605, "name": "TANDEM-X", "group": "resource", "lat": -30.366416057398727, "lon": 6.4182077532562465, "alt_km": 514.7354936366728, "timestamp": "2025-12-22T18:58:53.077487+00:00", "meta": {"OBJECT_NAME": "TANDEM-X", "OBJECT_ID": "2010-030A", "EPOCH": "2025-12-21T11:29:57.943104", "MEAN_MOTION": 15.19156092, "ECCENTRICITY": 0.0001799, "INCLINATION": 97.4444, "RA_OF_ASC_NODE": 0.7318, "ARG_OF_PERICENTER": 77.8908, "MEAN_ANOMALY": 282.2528, "EPHEMERIS_TYPE": 0, "CLASSIFICATION_TYPE": "U", "NORAD_CAT_ID": 36605, "ELEMENT_SET_NO": 999, "REV_AT_EPOCH": 85966, "BSTAR": 3.7921e-05, "MEAN_MOTION_DOT": 7.29e-06, "MEAN_MOTION_DDOT": 0}, "tle": {"line1": "1 36605U 10030A   25355.47914286  .00000729  00000+0  37921-4 0  9998", "line2": "2 36605  97.4444   0.7318 0001799  77.8908 282.2528 15.19156092859660"}}, "geometry": {"type": "Point", "coordinates": [6.4182077532562465, -30.366416057398727]}}, {"type": "Feature", "properties": {"norad_id": 36795, "name": "CARTOSAT-2B", "group": "resource", "lat": -9.10240744403122, "lon": 46.75024944999009, "alt_km": 632.430172442575, "timestamp": "2025-12-22T18:58:53.077497+00:00", "meta": {"OBJECT_NAME": "CARTOSAT-2B", "OBJECT_ID": "2010-035A", "EPOCH": "2025-12-22T07:39:17.428608", "MEAN_MOTION": 14.78739294, "ECCENTRICITY": 0.00127383, "INCLINATION": 97.7841, "RA_OF_ASC_NODE": 45.0379, "ARG_OF_PERICENTER": 48.4798, "MEAN_ANOMALY": 311.7504, "EPHEMERIS_TYPE": 0, "CLASSIFICATION_TYPE": "U", "NORAD_CAT_ID": 36795, "ELEMENT_SET_NO": 999, "REV_AT_EPOCH": 83371, "BSTAR": 0.00015131964, "MEAN_MOTION_DOT": 1.062e-05, "MEAN_MOTION_DDOT": 0}, "tle": {"line1": "1 36795U 10035A   25356.31895172  .00001062  00000+0  15132-3 0  9999", "line2": "2 36795  97.7841  45.0379 0012738  48.4798 311.7504 14.78739294833714"}}, "geometry": {"type": "Point", "coordinates": [46.75024944999009, -9.10240744403122]}}, {"type": "Feature", "properties": {"norad_id": 36834, "name": "YAOGAN-10", "group": "resource", "lat": -73.72929145450155, "lon": 44.99542715416259, "alt_km": 622.8549047117513, "timestamp": "2025-12-22T18:58:53.077508+00:00", "meta": {"OBJECT_NAME": "YAOGAN-10", "OBJECT_ID": "2010-038A", "EPOCH": "2025-12-22T06:57:33.827040", "MEAN_MOTION": 14.84638432, "ECCENTRICITY": 0.0001336, "INCLINATION": 97.9129, "RA_OF_ASC_NODE": 16.0388, "ARG_OF_PERICENTER": 77.5595, "MEAN_ANOMALY": 51.1244, "EPHEMERIS_TYPE": 0, "CLASSIFICATION_TYPE": "U", "NORAD_CAT_ID": 36834, "ELEMENT_SET_NO": 999, "REV_AT_EPOCH": 83095, "BSTAR": 0.00014183869, "MEAN_MOTION_DOT": 1.145e-05, "MEAN_MOTION_DDOT": 0}, "tle": {"line1": "1 36834U 10038A   25356.28997485  .00001145  00000+0  14184-3 0  9990", "line2": "2 36834  97.9129  16.0388 0001336  77.5595  51.1244 14.84638432830955"}}, "geometry": {"type": "Point", "coordinates": [44.99542715416259, -73.72929145450155]}}]}